{"type": "FeatureCollection", "features": [{"type": "Feature", "properties": {"norad_id": 25590, "name": "COSMOS 2361", "group": "musson", "lat": 77.2817864323289, "lon": 14.283426482400861, "alt_km": 1002.8402004069585, "timestamp": "2025-12-16T23:36:36.466246+00:00", "meta": {"OBJECT_NAME": "COSMOS 2361", "OBJECT_ID": "1998-076A", "EPOCH": "2025-12-16T08:03:41.255424", "MEAN_MOTION": 13.7321795, "ECCENTRICITY": 0.00300849, "INCLINATION": 82.934, "RA_OF_ASC_NODE": 341.4264, "ARG_OF_PERICENTER": 255.1805, "MEAN_ANOMALY": 223.3208, "EPHEMERIS_TYPE": 0, "CLASSIFICATION_TYPE": "U", "NORAD_CAT_ID": 25590, "ELEMENT_SET_NO": 999, "REV_AT_EPOCH": 35160, "BSTAR": 7.3203738e-05, "MEAN_MOTION_DOT": 8.3e-07, "MEAN_MOTION_DDOT": 0}, "tle": {"line1": "1 25590U 98076A   25350.33589416  .00000083  00000+0  73204-4 0  9995", "line2": "2 25590  82.9340 341.4264 0030084 255.1805 223.3208 13.73217950351607"}}, "geometry": {"type": "Point", "coordinates": [14.283426482400861, 77.2817864323289]}}, {"type": "Feature", "properties": {"norad_id": 26818, "name": "COSMOS 2378", "group": "musson", "lat": 13.75848456583255, "lon": 174.83611874506508, "alt_km": 964.2660240178948, "timestamp": "2025-12-16T23:36:36.466287+00:00", "meta": {"OBJECT_NAME": "COSMOS 2378", "OBJECT_ID": "2001-023A", "EPOCH": "2025-12-16T02:07:21.547776", "MEAN_MOTION": 13.74142251, "ECCENTRICITY": 0.00325987, "INCLINATION": 82.9272, "RA_OF_ASC_NODE": 357.2417, "ARG_OF_PERICENTER": 195.4369, "MEAN_ANOMALY": 224.2216, "EPHEMERIS_TYPE": 0, "CLASSIFICATION_TYPE": "U", "NORAD_CAT_ID": 26818, "ELEMENT_SET_NO": 999, "REV_AT_EPOCH": 22969, "BSTAR": 4.9743643e-05, "MEAN_MOTION_DOT": 6.2e-07, "MEAN_MOTION_DDOT": 0}, "tle": {"line1": "1 26818U 01023A   25350.08844384  .00000062  00000+0  49744-4 0  9994", "line2": "2 26818  82.9272 357.2417 0032598 195.4369 224.2216 13.74142251229697"}}, "geometry": {"type": "Point", "coordinates": [174.83611874506508, 13.75848456583255]}}, {"type": "Feature", "properties": {"norad_id": 27436, "name": "COSMOS 2389", "group": "musson", "lat": 28.035682169853523, "lon": -52.379087710561734, "alt_km": 947.1204784649271, "timestamp": "2025-12-16T23:36:36.466301+00:00", "meta": {"OBJECT_NAME": "COSMOS 2389", "OBJECT_ID": "2002-026A", "EPOCH": "2025-12-16T08:33:08.708256", "MEAN_MOTION": 13.75155108, "ECCENTRICITY": 0.00475287, "INCLINATION": 82.9505, "RA_OF_ASC_NODE": 304.3072, "ARG_OF_PERICENTER": 50.9172, "MEAN_ANOMALY": 113.3894, "EPHEMERIS_TYPE": 0, "CLASSIFICATION_TYPE": "U", "NORAD_CAT_ID": 27436, "ELEMENT_SET_NO": 999, "REV_AT_EPOCH": 18198, "BSTAR": 5.4608841e-05, "MEAN_MOTION_DOT": 6.8e-07, "MEAN_MOTION_DDOT": 0}, "tle": {"line1": "1 27436U 02026A   25350.35635079  .00000068  00000+0  54609-4 0  9996", "line2": "2 27436  82.9505 304.3072 0047528  50.9172 113.3894 13.75155108181984"}}, "geometry": {"type": "Point", "coordinates": [-52.379087710561734, 28.035682169853523]}}, {"type": "Feature", "properties": {"norad_id": 27818, "name": "COSMOS 2398", "group": "musson", "lat": -60.41963015893676, "lon": -103.02390067674295, "alt_km": 1021.004094345747, "timestamp": "2025-12-16T23:36:36.466313+00:00", "meta": {"OBJECT_NAME": "COSMOS 2398", "OBJECT_ID": "2003-023A", "EPOCH": "2025-12-16T06:57:24.634944", "MEAN_MOTION": 13.72386086, "ECCENTRICITY": 0.0032684, "INCLINATION": 82.9484, "RA_OF_ASC_NODE": 270.0822, "ARG_OF_PERICENTER": 102.2993, "MEAN_ANOMALY": 10.3976, "EPHEMERIS_TYPE": 0, "CLASSIFICATION_TYPE": "U", "NORAD_CAT_ID": 27818, "ELEMENT_SET_NO": 999, "REV_AT_EPOCH": 12865, "BSTAR": 4.0725864e-05, "MEAN_MOTION_DOT": 5.3e-07, "MEAN_MOTION_DDOT": 0}, "tle": {"line1": "1 27818U 03023A   25350.28986846  .00000053  00000+0  40726-4 0  9990", "line2": "2 27818  82.9484 270.0822 0032684 102.2993  10.3976 13.72386086128655"}}, "geometry": {"type": "Point", "coordinates": [-103.02390067674295, -60.41963015893676]}}, {"type": "Feature", "properties": {"norad_id": 28380, "name": "COSMOS 2407", "group": "musson", "lat": -14.857997222462762, "lon": 31.628986961692377, "alt_km": 1007.6038013016441, "timestamp": "2025-12-16T23:36:36.466324+00:00", "meta": {"OBJECT_NAME": "COSMOS 2407", "OBJECT_ID": "2004-028A", "EPOCH": "2025-12-16T04:02:38.304960", "MEAN_MOTION": 13.76314066, "ECCENTRICITY": 0.00401996, "INCLINATION": 82.9602, "RA_OF_ASC_NODE": 210.3541, "ARG_OF_PERICENTER": 45.5216, "MEAN_ANOMALY": 72.022, "EPHEMERIS_TYPE": 0, "CLASSIFICATION_TYPE": "U", "NORAD_CAT_ID": 28380, "ELEMENT_SET_NO": 999, "REV_AT_EPOCH": 7470, "BSTAR": 6.740412e-05, "MEAN_MOTION_DOT": 8.2e-07, "MEAN_MOTION_DDOT": 0}, "tle": {"line1": "1 28380U 04028A   25350.16849890  .00000082  00000+0  67404-4 0  9999", "line2": "2 28380  82.9602 210.3541 0040199  45.5216  72.0220 13.76314066 74700"}}, "geometry": {"type": "Point", "coordinates": [31.628986961692377, -14.857997222462762]}}, {"type": "Feature", "properties": {"norad_id": 28521, "name": "COSMOS 2414", "group": "musson", "lat": -81.26219808058589, "lon": 127.8137999194596, "alt_km": 968.6436405456489, "timestamp": "2025-12-16T23:36:36.466335+00:00", "meta": {"OBJECT_NAME": "COSMOS 2414", "OBJECT_ID": "2005-002A", "EPOCH": "2025-12-16T06:43:09.026112", "MEAN_MOTION": 13.87903467, "ECCENTRICITY": 0.00410846, "INCLINATION": 82.9488, "RA_OF_ASC_NODE": 181.9829, "ARG_OF_PERICENTER": 129.8078, "MEAN_ANOMALY": 230.6714, "EPHEMERIS_TYPE": 0, "CLASSIFICATION_TYPE": "U", "NORAD_CAT_ID": 28521, "ELEMENT_SET_NO": 999, "REV_AT_EPOCH": 5844, "BSTAR": 7.101415e-05, "MEAN_MOTION_DOT": 1.01e-06, "MEAN_MOTION_DDOT": 0}, "tle": {"line1": "1 28521U 05002A   25350.27996558  .00000101  00000+0  71014-4 0  9999", "line2": "2 28521  82.9488 181.9829 0041084 129.8078 230.6714 13.87903467 58441"}}, "geometry": {"type": "Point", "coordinates": [127.8137999194596, -81.26219808058589]}}, {"type": "Feature", "properties": {"norad_id": 32052, "name": "COSMOS 2429", "group": "musson", "lat": -34.068535623791625, "lon": 164.95947735080117, "alt_km": 1015.7620799666565, "timestamp": "2025-12-16T23:36:36.466346+00:00", "meta": {"OBJECT_NAME": "COSMOS 2429", "OBJECT_ID": "2007-038A", "EPOCH": "2025-12-16T01:37:01.606944", "MEAN_MOTION": 13.75149736, "ECCENTRICITY": 0.00390627, "INCLINATION": 82.9804, "RA_OF_ASC_NODE": 340.8554, "ARG_OF_PERICENTER": 28.7658, "MEAN_ANOMALY": 331.5641, "EPHEMERIS_TYPE": 0, "CLASSIFICATION_TYPE": "U", "NORAD_CAT_ID": 32052, "ELEMENT_SET_NO": 999, "REV_AT_EPOCH": 91648, "BSTAR": 6.4640986e-05, "MEAN_MOTION_DOT": 7.7e-07, "MEAN_MOTION_DDOT": 0}, "tle": {"line1": "1 32052U 07038A   25350.06737971  .00000077  00000+0  64641-4 0  9993", "line2": "2 32052  82.9804 340.8554 0039062  28.7658 331.5641 13.75149736916487"}}, "geometry": {"type": "Point", "coordinates": [164.95947735080117, -34.068535623791625]}}, {"type": "Feature", "properties": {"norad_id": 35635, "name": "COSMOS 2454", "group": "musson", "lat": -4.265137588281527, "lon": 164.89920924227968, "alt_km": 926.3684215381109, "timestamp": "2025-12-16T23:36:36.466356+00:00", "meta": {"OBJECT_NAME": "COSMOS 2454", "OBJECT_ID": "2009-039A", "EPOCH": "2025-12-16T05:27:19.705824", "MEAN_MOTION": 13.89929063, "ECCENTRICITY": 0.00203802, "INCLINATION": 82.9553, "RA_OF_ASC_NODE": 166.0011, "ARG_OF_PERICENTER": 64.4558, "MEAN_ANOMALY": 108.6897, "EPHEMERIS_TYPE": 0, "CLASSIFICATION_TYPE": "U", "NORAD_CAT_ID": 35635, "ELEMENT_SET_NO": 999, "REV_AT_EPOCH": 83198, "BSTAR": 5.9625632e-05, "MEAN_MOTION_DOT": 8.9e-07, "MEAN_MOTION_DDOT": 0}, "tle": {"line1": "1 35635U 09039A   25350.22731141  .00000089  00000+0  59626-4 0  9997", "line2": "2 35635  82.9553 166.0011 0020380  64.4558 108.6897 13.89929063831984"}}, "geometry": {"type": "Point", "coordinates": [164.89920924227968, -4.265137588281527]}}, {"type": "Feature", "properties": {"norad_id": 36519, "name": "COSMOS 2463", "group": "musson", "lat": 61.913570761401736, "lon": -169.79255392262618, "alt_km": 1011.4784273987716, "timestamp": "2025-12-16T23:36:36.466367+00:00", "meta": {"OBJECT_NAME": "COSMOS 2463", "OBJECT_ID": "2010-017A", "EPOCH": "2025-12-16T04:04:20.570592", "MEAN_MOTION": 13.71649411, "ECCENTRICITY": 0.00347391, "INCLINATION": 82.961, "RA_OF_ASC_NODE": 24.1921, "ARG_OF_PERICENTER": 278.1516, "MEAN_ANOMALY": 141.6221, "EPHEMERIS_TYPE": 0, "CLASSIFICATION_TYPE": "U", "NORAD_CAT_ID": 36519, "ELEMENT_SET_NO": 999, "REV_AT_EPOCH": 78284, "BSTAR": 4.9978175e-05, "MEAN_MOTION_DOT": 6e-07, "MEAN_MOTION_DDOT": 0}, "tle": {"line1": "1 36519U 10017A   25350.16968253  .00000060  00000+0  49978-4 0  9994", "line2": "2 36519  82.9610  24.1921 0034739 278.1516 141.6221 13.71649411782840"}}, "geometry": {"type": "Point", "coordinates": [-169.79255392262618, 61.913570761401736]}}]}